{
  "type": "FeatureCollection",
  "features": [
    {
      "type": "Feature",
      "properties": {
        "norad_id": 66445,
        "name": "STARLINK-34698",
        "group": "last-30-days",
        "lat": 25.97110964521541,
        "lon": -129.4533284805638,
        "alt_km": 410.56344396212626,
        "timestamp": "2025-12-06T18:50:08.954759+00:00",
        "meta_object_name": "STARLINK-34698",
        "meta_object_id": "2025-259Z",
        "meta_epoch": "2025-12-05T14:24:40.158720",
        "meta_mean_motion": 15.50628613,
        "meta_eccentricity": 0.00016331,
        "meta_inclination": 43.0005,
        "meta_ra_of_asc_node": 88.993,
        "meta_arg_of_pericenter": 254.6453,
        "meta_mean_anomaly": 105.4227,
        "meta_ephemeris_type": 0,
        "meta_classification_type": "U",
        "meta_norad_cat_id": 66445,
        "meta_element_set_no": 999,
        "meta_rev_at_epoch": 495,
        "meta_bstar": 0.0019380821,
        "meta_mean_motion_dot": 0.00115249,
        "meta_mean_motion_ddot": 0,
        "tle_line1": "1 66445U 25259Z   25339.60046480  .00115249  00000+0  19381-2 0  9993",
        "tle_line2": "2 66445  43.0005  88.9930 0001633 254.6453 105.4227 15.50628613  4954"
      },
      "geometry": {
        "type": "Point",
        "coordinates": [
          -129.4533284805638,
          25.97110964521541
        ]
      }
    },
    {
      "type": "Feature",
      "properties": {
        "norad_id": 66446,
        "name": "STARLINK-34986",
        "group": "last-30-days",
        "lat": 24.800207676517815,
        "lon": -127.66933857044157,
        "alt_km": 410.97212055068303,
        "timestamp": "2025-12-06T18:50:08.954769+00:00",
        "meta_object_name": "STARLINK-34986",
        "meta_object_id": "2025-259AA",
        "meta_epoch": "2025-12-05T14:24:10.710144",
        "meta_mean_motion": 15.50650641,
        "meta_eccentricity": 0.00017786,
        "meta_inclination": 43.0006,
        "meta_ra_of_asc_node": 88.99,
        "meta_arg_of_pericenter": 271.248,
        "meta_mean_anomaly": 88.8176,
        "meta_ephemeris_type": 0,
        "meta_classification_type": "U",
        "meta_norad_cat_id": 66446,
        "meta_element_set_no": 999,
        "meta_rev_at_epoch": 506,
        "meta_bstar": 0.0019204349,
        "meta_mean_motion_dot": 0.00114272,
        "meta_mean_motion_ddot": 0,
        "tle_line1": "1 66446U 25259AA  25339.60012396  .00114272  00000+0  19204-2 0  9992",
        "tle_line2": "2 66446  43.0006  88.9900 0001778 271.2480  88.8176 15.50650641  5064"
      },
      "geometry": {
        "type": "Point",
        "coordinates": [
          -127.66933857044157,
          24.800207676517815
        ]
      }
    },
    {
      "type": "Feature",
      "properties": {
        "norad_id": 66447,
        "name": "STARLINK-34851",
        "group": "last-30-days",
        "lat": 22.326482018548145,
        "lon": -124.1011907407772,
        "alt_km": 411.8814913081387,
        "timestamp": "2025-12-06T18:50:08.954778+00:00",
        "meta_object_name": "STARLINK-34851",
        "meta_object_id": "2025-259AB",
        "meta_epoch": "2025-12-05T14:23:11.341248",
        "meta_mean_motion": 15.50651142,
        "meta_eccentricity": 0.00028556,
        "meta_inclination": 43.0005,
        "meta_ra_of_asc_node": 88.9852,
        "meta_arg_of_pericenter": 295.944,
        "meta_mean_anomaly": 64.1126,
        "meta_ephemeris_type": 0,
        "meta_classification_type": "U",
        "meta_norad_cat_id": 66447,
        "meta_element_set_no": 999,
        "meta_rev_at_epoch": 495,
        "meta_bstar": 0.0028119647,
        "meta_mean_motion_dot": 0.00168668,
        "meta_mean_motion_ddot": 0,
        "tle_line1": "1 66447U 25259AB  25339.59943682  .00168668  00000+0  28120-2 0  9997",
        "tle_line2": "2 66447  43.0005  88.9852 0002855 295.9440  64.1126 15.50651142  4952"
      },
      "geometry": {
        "type": "Point",
        "coordinates": [
          -124.1011907407772,
          22.326482018548145
        ]
      }
    },
    {
      "type": "Feature",
      "properties": {
        "norad_id": 66448,
        "name": "STARLINK-35355",
        "group": "last-30-days",
        "lat": 21.613547850499852,
        "lon": -123.11446819594147,
        "alt_km": 411.26079054173533,
        "timestamp": "2025-12-06T18:50:08.954790+00:00",
        "meta_object_name": "STARLINK-35355",
        "meta_object_id": "2025-259AC",
        "meta_epoch": "2025-12-06T07:23:01.824864",
        "meta_mean_motion": 15.50711069,
        "meta_eccentricity": 0.00018563,
        "meta_inclination": 43.0001,
        "meta_ra_of_asc_node": 84.8401,
        "meta_arg_of_pericenter": 265.0291,
        "meta_mean_anomaly": 95.0357,
        "meta_ephemeris_type": 0,
        "meta_classification_type": "U",
        "meta_norad_cat_id": 66448,
        "meta_element_set_no": 999,
        "meta_rev_at_epoch": 517,
        "meta_bstar": 0.0037050436,
        "meta_mean_motion_dot": 0.00224416,
        "meta_mean_motion_ddot": 0,
        "tle_line1": "1 66448U 25259AC  25340.30766001  .00224416  00000+0  37050-2 0  9993",
        "tle_line2": "2 66448  43.0001  84.8401 0001856 265.0291  95.0357 15.50711069  5175"
      },
      "geometry": {
        "type": "Point",
        "coordinates": [
          -123.11446819594147,
          21.613547850499852
        ]
      }
    },
    {
      "type": "Feature",
      "properties": {
        "norad_id": 66449,
        "name": "STARLINK-34720",
        "group": "last-30-days",
        "lat": 20.49508544093088,
        "lon": -121.60557815458482,
        "alt_km": 410.85100886197415,
        "timestamp": "2025-12-06T18:50:08.954801+00:00",
        "meta_object_name": "STARLINK-34720",
        "meta_object_id": "2025-259AD",
        "meta_epoch": "2025-12-06T07:22:32.041920",
        "meta_mean_motion": 15.50668005,
        "meta_eccentricity": 0.00012215,
        "meta_inclination": 43.0002,
        "meta_ra_of_asc_node": 84.8371,
        "meta_arg_of_pericenter": 212.4175,
        "meta_mean_anomaly": 147.661,
        "meta_ephemeris_type": 0,
        "meta_classification_type": "U",
        "meta_norad_cat_id": 66449,
        "meta_element_set_no": 999,
        "meta_rev_at_epoch": 506,
        "meta_bstar": 0.0022388971,
        "meta_mean_motion_dot": 0.00133693,
        "meta_mean_motion_ddot": 0,
        "tle_line1": "1 66449U 25259AD  25340.30731530  .00133693  00000+0  22389-2 0  9998",
        "tle_line2": "2 66449  43.0002  84.8371 0001221 212.4175 147.6610 15.50668005  5061"
      },
      "geometry": {
        "type": "Point",
        "coordinates": [
          -121.60557815458482,
          20.49508544093088
        ]
      }
    },
    {
      "type": "Feature",
      "properties": {
        "norad_id": 66450,
        "name": "STARLINK-35334",
        "group": "last-30-days",
        "lat": 19.333870988411725,
        "lon": -120.08087754063116,
        "alt_km": 415.122598007928,
        "timestamp": "2025-12-06T18:50:08.954811+00:00",
        "meta_object_name": "STARLINK-35334",
        "meta_object_id": "2025-259AE",
        "meta_epoch": "2025-12-06T07:22:02.702208",
        "meta_mean_motion": 15.50683399,
        "meta_eccentricity": 0.00069962,
        "meta_inclination": 43.0003,
        "meta_ra_of_asc_node": 84.8336,
        "meta_arg_of_pericenter": 293.1431,
        "meta_mean_anomaly": 66.8692,
        "meta_ephemeris_type": 0,
        "meta_classification_type": "U",
        "meta_norad_cat_id": 66450,
        "meta_element_set_no": 999,
        "meta_rev_at_epoch": 517,
        "meta_bstar": 0.0026791553,
        "meta_mean_motion_dot": 0.00160813,
        "meta_mean_motion_ddot": 0,
        "tle_line1": "1 66450U 25259AE  25340.30697572  .00160813  00000+0  26792-2 0  9993",
        "tle_line2": "2 66450  43.0003  84.8336 0006996 293.1431  66.8692 15.50683399  5177"
      },
      "geometry": {
        "type": "Point",
        "coordinates": [
          -120.08087754063116,
          19.333870988411725
        ]
      }
    },
    {
      "type": "Feature",
      "properties": {
        "norad_id": 66454,
        "name": "VIASAT-3 F2",
        "group": "last-30-days",
        "lat": 5.552124756167667,
        "lon": 28.47112481849717,
        "alt_km": 16577.990996522774,
        "timestamp": "2025-12-06T18:50:08.954826+00:00",
        "meta_object_name": "VIASAT-3 F2",
        "meta_object_id": "2025-261A",
        "meta_epoch": "2025-12-04T21:51:56.064384",
        "meta_mean_motion": 2.28030055,
        "meta_eccentricity": 0.23396731,
        "meta_inclination": 5.5696,
        "meta_ra_of_asc_node": 293.0418,
        "meta_arg_of_pericenter": 184.3884,
        "meta_mean_anomaly": 199.1368,
        "meta_ephemeris_type": 0,
        "meta_classification_type": "U",
        "meta_norad_cat_id": 66454,
        "meta_element_set_no": 999,
        "meta_rev_at_epoch": 47,
        "meta_bstar": 0,
        "meta_mean_motion_dot": -6.1e-07,
        "meta_mean_motion_ddot": 0,
        "tle_line1": "1 66454U 25261A   25338.91106556 -.00000061  00000+0  00000+0 0  9991",
        "tle_line2": "2 66454   5.5696 293.0418 2339673 184.3884 199.1368  2.28030055   477"
      },
      "geometry": {
        "type": "Point",
        "coordinates": [
          28.47112481849717,
          5.552124756167667
        ]
      }
    }
  ]
}